COSMOS 2507 (RODNIK-S *)
1 40920U 15050A   26179.66243446  .00000166  00000+0  11305-2 0  9990
2 40920  82.4928  72.5259 0009694 331.9993  28.0564 12.42927380488288
COSMOS 2508 (RODNIK-S *)
1 40921U 15050B   26179.61756580  .00000068  00000+0  41993-3 0  9992
2 40921  82.4880  71.0546 0014704   3.0096 357.1069 12.42914587488267
COSMOS 2509 (RODNIK-S *)
1 40922U 15050C   26179.63818648  .00000052  00000+0  30239-3 0  9993
2 40922  82.4889  71.1452 0015354  19.4736 340.6927 12.42884019488309
LINGQIAO VIDEO A        
1 40959U 15057B   26179.60441277  .00000435  00000+0  67871-4 0  9995
2 40959  97.6617 173.8430 0015372 229.6257 130.3613 14.77405909577093
LINGQIAO VIDEO B        
1 40960U 15057C   26179.64798657  .00000363  00000+0  57581-4 0  9995
2 40960  97.6583 175.0451 0015523 229.4750 130.5110 14.77512766577148
JILIN-1                 
1 40961U 15057D   26179.58870865  .00000775  00000+0  11348-3 0  9998
2 40961  97.6509 178.3894 0015771 222.4043 137.5951 14.78177511577299
FOX-1A (AO-85)          
1 40967U 15058D   26179.55386048  .00001884  00000+0  17662-3 0  9994
2 40967  64.7745 243.6587 0131145  52.1698 309.1198 14.91015179115266
SINOD-D 1               
1 40968U 15058E   26179.57685606  .00002906  00000+0  23787-3 0  9990
2 40968  64.7737 223.2432 0119813  48.5852 312.5483 14.95968824118367
ELEKTRO-L 2             
1 41105U 15074A   26178.94596200 -.00000113  00000+0  00000+0 0  9991
2 41105   6.7214  70.3918 0000680 283.3260 248.3287  1.00271140 38617
DAMPE                   
1 41173U 15078A   26179.60770635  .00001345  00000+0  47681-4 0  9998
2 41173  97.4555 185.1308 0013286  41.6509 318.5741 15.30814184586298
ORBCOMM FM110           
1 41182U 15081D   26179.60948496  .00000623  00000+0  16798-3 0  9996
2 41182  47.0030 307.4350 0002700 144.0913 216.0155 14.58896710559294
ORBCOMM FM112           
1 41184U 15081F   26179.51114840  .00000323  00000+0  10441-3 0  9992
2 41184  46.9973 216.6987 0004109 262.3514  97.6905 14.58915585560608
ORBCOMM FM113           
1 41185U 15081G   26179.48814361  .00000275  00000+0  94312-4 0  9990
2 41185  46.9990 217.1892 0002612 263.3683  96.6906 14.58867726560584
ORBCOMM FM108           
1 41187U 15081J   26179.58738906  .00000514  00000+0  14483-3 0  9999
2 41187  47.0044 128.2965 0003200 263.8893  96.1628 14.58887238561748
ORBCOMM FM117           
1 41188U 15081K   26179.00509265  .00000351  00000+0  11048-3 0  9994
2 41188  47.0003 129.6801 0003678 265.3235  94.7230 14.58873535561708
ORBCOMM FM116           
1 41189U 15081L   26179.53327300  .00000342  00000+0  10840-3 0  9990
2 41189  47.0008 216.9738 0000782 170.6855 189.4045 14.58894970560590
HORYU-4                 
1 41340U 16012D   26179.58501936  .01302903  11103-2  11194-2 0  9998
2 41340  30.9814 354.5243 0009577 338.1481  21.8776 16.12369922572647
ZIYUAN 3-02 (ZY 3-02)   
1 41556U 16033A   26179.63496425  .00004834  00000+0  21889-3 0  9997
2 41556  97.3840 255.1889 0012579 246.3421 113.6495 15.21284570559720
CARTOSAT-2C             
1 41599U 16040A   26179.65272538  .00005930  00000+0  28391-3 0  9994
2 41599  97.4480 239.4734 0010431  96.3347 263.9076 15.19280763555454
LAPAN-A3                
1 41603U 16040E   26179.61306774  .00003120  00000+0  99569-4 0  9991
2 41603  97.1487 175.3836 0009458 345.3903  14.7065 15.33176772556560
GAOFEN-3                
1 41727U 16049A   26179.60072410  .00000039  00000+0  24971-4 0  9994
2 41727  98.4009 187.2142 0001616  95.7119 264.4256 14.42216874520290
CAS-2T & KS-1Q          
1 41847U 16066G   26179.46064137  .00001594  00000+0  22985-3 0  9996
2 41847  98.3821 255.0681 0342884  95.3928 268.6474 14.44729722506425
YUNHAI-1 01             
1 41857U 16068A   26179.62176655  .00000368  00000+0  15235-3 0  9994
2 41857  98.5841 190.5205 0005538  27.8907 332.2572 14.32430904503460
RESOURCESAT-2A          
1 41877U 16074A   26179.61347266  .00000675  00000+0  32782-3 0  9997
2 41877  98.7532 253.0247 0003168  61.3252 298.8244 14.21605871495924
